{
    "links": {
        "self": "http://www.neowsapp.com/rest/v1/neo/3824096?api_key=iIulBulltgU6a56xZRHN4H3l9WmuAYTsLGpBGhQ2"
    },
    "id": "3824096",
    "neo_reference_id": "3824096",
    "name": "(2018 JU2)",
    "designation": "2018 JU2",
    "nasa_jpl_url": "http://ssd.jpl.nasa.gov/sbdb.cgi?sstr=3824096",
    "absolute_magnitude_h": 28.6,
    "estimated_diameter": {
        "kilometers": {
            "estimated_diameter_min": 0.0050647146,
            "estimated_diameter_max": 0.0113250461
        },
        "meters": {
            "estimated_diameter_min": 5.0647145883,
            "estimated_diameter_max": 11.3250461062
        },
        "miles": {
            "estimated_diameter_min": 0.0031470668,
            "estimated_diameter_max": 0.0070370552
        },
        "feet": {
            "estimated_diameter_min": 16.61651821,
            "estimated_diameter_max": 37.155664267
        }
    },
    "is_potentially_hazardous_asteroid": false,
    "close_approach_data": [
        {
            "close_approach_date": "2018-05-06",
            "close_approach_date_full": "2018-May-06 05:25",
            "epoch_date_close_approach": 1525584300000,
            "relative_velocity": {
                "kilometers_per_second": "5.7732971043",
                "kilometers_per_hour": "20783.8695753635",
                "miles_per_hour": "12914.2882925363"
            },
            "miss_distance": {
                "astronomical": "0.0092176579",
                "lunar": "3.5856689231",
                "kilometers": "1378941.988228673",
                "miles": "856834.8195267674"
            },
            "orbiting_body": "Earth"
        },
        {
            "close_approach_date": "2024-11-06",
            "close_approach_date_full": "2024-Nov-06 02:48",
            "epoch_date_close_approach": 1730861280000,
            "relative_velocity": {
                "kilometers_per_second": "8.3258391044",
                "kilometers_per_hour": "29973.0207757713",
                "miles_per_hour": "18624.0694925897"
            },
            "miss_distance": {
                "astronomical": "0.4887765113",
                "lunar": "190.1340628957",
                "kilometers": "73119924.996510931",
                "miles": "45434614.5617596078"
            },
            "orbiting_body": "Earth"
        },
        {
            "close_approach_date": "2028-01-29",
            "close_approach_date_full": "2028-Jan-29 17:05",
            "epoch_date_close_approach": 1832778300000,
            "relative_velocity": {
                "kilometers_per_second": "11.3599571649",
                "kilometers_per_hour": "40895.8457937386",
                "miles_per_hour": "25411.0881822261"
            },
            "miss_distance": {
                "astronomical": "0.2421490964",
                "lunar": "94.1959984996",
                "kilometers": "36224989.043864668",
                "miles": "22509164.4280336984"
            },
            "orbiting_body": "Earth"
        }
    ],
    "orbital_data": {
        "orbit_id": "1",
        "orbit_determination_date": "2018-05-14 10:12:18",
        "first_observation_date": "2018-05-12",
        "last_observation_date": "2018-05-14",
        "data_arc_in_days": 2,
        "observations_used": 20,
        "orbit_uncertainty": "7",
        "minimum_orbit_intersection": ".00608995",
        "jupiter_tisserand_invariant": "5.072",
        "epoch_osculation": "2459000.5",
        "eccentricity": ".2367869528476612",
        "semi_major_axis": "1.263163648418508",
        "inclination": "5.749702498032295",
        "ascending_node_longitude": "226.6660489419342",
        "orbital_period": "518.5466767577743",
        "perihelion_distance": ".964062977161555",
        "perihelion_argument": "315.9803950997891",
        "aphelion_distance": "1.562264319675461",
        "perihelion_time": "2459243.976649150818",
        "mean_anomaly": "190.9668201089663",
        "mean_motion": ".6942480130253823",
        "equinox": "J2000",
        "orbit_class": {
            "orbit_class_type": "APO",
            "orbit_class_description": "Near-Earth asteroid orbits which cross the Earth’s orbit similar to that of 1862 Apollo",
            "orbit_class_range": "a (semi-major axis) > 1.0 AU; q (perihelion) < 1.017 AU"
        }
    },
    "is_sentry_object": false
}